     2              NAVIGATION DATA                         RINEX VERSION / TYPE
CCRINEXN V1.6.0 UX  CDDIS               23-MAR-19 17:31     PGM / RUN BY / DATE 
IGS BROADCAST EPHEMERIS FILE                                COMMENT             
    0.1118D-07  0.7451D-08 -0.5960D-07 -0.5960D-07          ION ALPHA           
    0.9011D+05  0.0000D+00 -0.1966D+06 -0.6554D+05          ION BETA            
   -0.558793544769D-08-0.133226762955D-13    61440     2046 DELTA-UTC: A0,A1,T,W
    18                                                      LEAP SECONDS        
                                                            END OF HEADER       
12 19  3 22 11 59 44.0 0.257975421846D-03-0.329691829393D-11 0.000000000000D+00
    0.200000000000D+01-0.813750000000D+02 0.428553548204D-08-0.428243436961D+00
   -0.424683094025D-05 0.759438599926D-02 0.580027699471D-05 0.515367607117D+04
    0.475184000000D+06-0.484287738800D-07 0.252184026982D+01 0.838190317154D-07
    0.983474444973D+00 0.279187500000D+03 0.104988042202D+01-0.824748624950D-08
   -0.545022693643D-09 0.100000000000D+01 0.204500000000D+04 0.000000000000D+00
    0.200000000000D+01 0.000000000000D+00-0.125728547573D-07 0.200000000000D+01
    0.469500000000D+06 0.000000000000D+00 0.000000000000D+00 0.000000000000D+00
19 19  3 22 11 59 44.0-0.339452177286D-03 0.432009983342D-11 0.000000000000D+00
    0.120000000000D+02-0.337500000000D+01 0.365158067442D-08-0.433150132956D+00
   -0.689178705216D-07 0.944790872745D-02 0.136122107506D-04 0.515363093376D+04
    0.475184000000D+06-0.894069671631D-07-0.268211902434D+01 0.158324837685D-06
    0.982028616702D+00 0.132781250000D+03 0.136083514221D+01-0.770496379981D-08
    0.242867259253D-09 0.100000000000D+01 0.204500000000D+04 0.000000000000D+00
    0.200000000000D+01 0.000000000000D+00-0.153668224812D-07 0.120000000000D+02
    0.468018000000D+06 0.400000000000D+01 0.000000000000D+00 0.000000000000D+00
30 19  3 22 11 59 44.0-0.728764571250D-04-0.670752342558D-11 0.000000000000D+00
    0.800000000000D+01 0.817187500000D+02 0.536629495630D-08 0.327216470748D+00
    0.412948429585D-05 0.376253749710D-02 0.461004674435D-05 0.515360941124D+04
    0.475184000000D+06-0.391155481338D-07 0.145175232484D+01-0.745058059692D-08
    0.941177662159D+00 0.275281250000D+03-0.301642809352D+01-0.875322174968D-08
    0.283583240952D-09 0.100000000000D+01 0.204500000000D+04 0.000000000000D+00
    0.200000000000D+01 0.000000000000D+00 0.372529029846D-08 0.800000000000D+01
    0.468018000000D+06 0.400000000000D+01 0.000000000000D+00 0.000000000000D+00
 1 19  3 22 12  0  0.0-0.185842625797D-03-0.773070496507D-11 0.000000000000D+00
    0.180000000000D+02 0.730000000000D+02 0.455376111100D-08 0.931148369793D+00
    0.373274087906D-05 0.852230831515D-02 0.637397170067D-05 0.515365355110D+04
    0.475200000000D+06-0.745058059692D-08-0.172880208990D+01 0.596046447754D-07
    0.974461926022D+00 0.263156250000D+03 0.683981369015D+00-0.835999108433D-08
    0.530379235281D-09 0.100000000000D+01 0.204500000000D+04 0.000000000000D+00
    0.200000000000D+01 0.000000000000D+00 0.558793544769D-08 0.180000000000D+02
    0.000000000000D+00 0.400000000000D+01 0.000000000000D+00 0.000000000000D+00
 2 19  3 22 12  0  0.0-0.169870443642D-03-0.954969436862D-11 0.000000000000D+00
    0.560000000000D+02 0.681875000000D+02 0.496734976720D-08 0.122412061276D+01
    0.342726707458D-05 0.189261152409D-01 0.666640698910D-05 0.515367119980D+04
    0.475200000000D+06-0.432133674622D-06-0.179619549130D+01-0.223517417908D-06
    0.953601792382D+00 0.247562500000D+03-0.175736816500D+01-0.865178895317D-08
    0.569666586043D-09 0.100000000000D+01 0.204500000000D+04 0.000000000000D+00
    0.200000000000D+01 0.000000000000D+00-0.204890966415D-07 0.560000000000D+02
    0.468018000000D+06 0.400000000000D+01 0.000000000000D+00 0.000000000000D+00
 3 19  3 22 12  0  0.0 0.187031924725D-03 0.909494701773D-12 0.000000000000D+00
    0.690000000000D+02-0.752500000000D+02 0.502449500467D-08-0.146430858290D-01
   -0.389665365219D-05 0.194307963830D-02 0.575184822082D-05 0.515355198479D+04
    0.475200000000D+06 0.521540641785D-07-0.685830131738D+00 0.353902578354D-07
    0.962568425444D+00 0.273593750000D+03 0.586727015444D+00-0.846535261592D-08
   -0.444661379074D-09 0.100000000000D+01 0.204500000000D+04 0.000000000000D+00
    0.200000000000D+01 0.000000000000D+00 0.232830643654D-08 0.690000000000D+02
    0.000000000000D+00 0.400000000000D+01 0.000000000000D+00 0.000000000000D+00
 4 19  3 22 12  0  0.0 0.137991737574D-03 0.659383658785D-11 0.000000000000D+00
    0.202000000000D+03 0.103125000000D+02 0.433089468486D-08 0.289133844362D+00
    0.694766640663D-06 0.344567582942D-03 0.142324715853D-04 0.515380663490D+04
    0.475200000000D+06 0.186264514923D-08 0.390951835250D+00-0.167638063431D-07
    0.960406699194D+00 0.106062500000D+03-0.168078130071D+01-0.790675791963D-08
   -0.242867259253D-10 0.100000000000D+01 0.204500000000D+04 0.000000000000D+00
    0.160000000000D+02 0.630000000000D+02-0.884756445885D-08 0.970000000000D+03
    0.468018000000D+06 0.400000000000D+01 0.000000000000D+00 0.000000000000D+00
 5 19  3 22 12  0  0.0 0.118417665362D-05 0.000000000000D+00 0.000000000000D+00
    0.100000000000D+02-0.741875000000D+02 0.523057508417D-08-0.240218666113D+01
   -0.409036874771D-05 0.556808733381D-02 0.523217022419D-05 0.515364853287D+04
    0.475200000000D+06 0.104308128357D-06-0.711757108478D+00-0.121071934700D-06
    0.949423301897D+00 0.271750000000D+03 0.706731929285D+00-0.853464143802D-08
   -0.336442596005D-09 0.100000000000D+01 0.204500000000D+04 0.000000000000D+00
    0.200000000000D+01 0.000000000000D+00-0.111758708954D-07 0.100000000000D+02
    0.000000000000D+00 0.000000000000D+00 0.000000000000D+00 0.000000000000D+00
 6 19  3 22 12  0  0.0 0.249275006354D-03-0.898126018001D-11 0.000000000000D+00
    0.150000000000D+02 0.693125000000D+02 0.443661337418D-08 0.113053868389D+01
    0.374019145966D-05 0.161961559206D-02 0.614672899246D-05 0.515354534912D+04
    0.475200000000D+06-0.316649675369D-07-0.173708894150D+01-0.894069671631D-07
    0.974128364608D+00 0.265312500000D+03-0.115238096806D+01-0.818069790176D-08
    0.608239621336D-09 0.100000000000D+01 0.204500000000D+04 0.000000000000D+00
    0.200000000000D+01 0.000000000000D+00 0.465661287308D-08 0.150000000000D+02
    0.468018000000D+06 0.400000000000D+01 0.000000000000D+00 0.000000000000D+00
 7 19  3 22 12  0  0.0 0.100713223219D-04-0.738964445190D-11 0.000000000000D+00
    0.500000000000D+02 0.881875000000D+02 0.510592696807D-08 0.320819146080D+00
    0.475160777569D-05 0.123355623800D-01 0.501796603203D-05 0.515359931183D+04
    0.475200000000D+06-0.186264514923D-07 0.142258352018D+01 0.912696123123D-07
    0.955710294747D+00 0.276781250000D+03-0.247320432943D+01-0.876322216624D-08
    0.297869550319D-09 0.100000000000D+01 0.204500000000D+04 0.000000000000D+00
    0.200000000000D+01 0.000000000000D+00-0.111758708954D-07 0.500000000000D+02
    0.468018000000D+06 0.400000000000D+01 0.000000000000D+00 0.000000000000D+00
 8 19  3 22 12  0  0.0-0.137098599225D-03-0.136424205266D-11 0.000000000000D+00
    0.400000000000D+02-0.217500000000D+02 0.386087510666D-08-0.291781528738D+01
   -0.101514160633D-05 0.437514227815D-02 0.149291008711D-04 0.515372113037D+04
    0.475200000000D+06-0.186264514923D-08-0.279503612056D+01 0.409781932831D-07
    0.970525593829D+00 0.963125000000D+02-0.297798994878D+00-0.768960601724D-08
    0.335728270144D-10 0.100000000000D+01 0.204500000000D+04 0.000000000000D+00
    0.200000000000D+01 0.000000000000D+00 0.512227416039D-08 0.400000000000D+02
    0.000000000000D+00 0.400000000000D+01 0.000000000000D+00 0.000000000000D+00
 9 19  3 22 12  0  0.0 0.441302079707D-03-0.591171556152D-11 0.000000000000D+00
    0.100000000000D+02-0.106250000000D+01 0.448340103736D-08-0.285267038814D+01
    0.838190317154D-07 0.137074477971D-02 0.144746154547D-04 0.515372554016D+04
    0.475200000000D+06 0.111758708954D-07 0.346272565997D+00 0.000000000000D+00
    0.953047448834D+00 0.980625000000D+02 0.173632270890D+01-0.796033157976D-08
   -0.671456540289D-10 0.100000000000D+01 0.204500000000D+04 0.000000000000D+00
    0.200000000000D+01 0.000000000000D+00 0.139698386192D-08 0.100000000000D+02
    0.468018000000D+06 0.400000000000D+01 0.000000000000D+00 0.000000000000D+00
10 19  3 22 12  0  0.0 0.914623960853D-04-0.886757334229D-11 0.000000000000D+00
    0.100000000000D+03-0.735625000000D+02 0.491306195727D-08-0.114222830342D+01
   -0.382214784622D-05 0.442087312695D-02 0.566616654396D-05 0.515365818787D+04
    0.475200000000D+06 0.279396772385D-07-0.689095865209D+00 0.298023223877D-07
    0.962599879646D+00 0.268093750000D+03-0.271718256817D+01-0.838749247833D-08
   -0.385730364316D-09 0.100000000000D+01 0.204500000000D+04 0.000000000000D+00
    0.200000000000D+01 0.000000000000D+00 0.186264514923D-08 0.100000000000D+03
    0.468030000000D+06 0.000000000000D+00 0.000000000000D+00 0.000000000000D+00
11 19  3 22 12  0  0.0-0.640608370304D-03 0.670752342558D-11 0.000000000000D+00
    0.540000000000D+02 0.705312500000D+02 0.572023827088D-08 0.223159691474D+00
    0.363960862160D-05 0.165262917289D-01 0.105723738670D-04 0.515369472122D+04
    0.475200000000D+06-0.115483999252D-06-0.217544315537D+01-0.191852450371D-06
    0.908726811022D+00 0.150093750000D+03 0.187205032748D+01-0.901073247603D-08
    0.597524889310D-09 0.100000000000D+01 0.204500000000D+04 0.000000000000D+00
    0.200000000000D+01 0.000000000000D+00-0.121071934700D-07 0.540000000000D+02
    0.000000000000D+00 0.400000000000D+01 0.000000000000D+00 0.000000000000D+00
